{"type":"Feature","properties":{"key":"aussersihl-cruise"},"geometry":{"type":"LineString","coordinates":[[8.526448,47.377514],[8.526369,47.377379],[8.526313,47.3773],[8.526019,47.376884],[8.525803,47.376581],[8.525779,47.376547],[8.525702,47.376429],[8.525618,47.376291],[8.52559,47.376251],[8.525561,47.376209],[8.525475,47.376091],[8.52533,47.375901],[8.525116,47.375614],[8.524999,47.37545],[8.524945,47.375371],[8.524707,47.37504],[8.524412,47.37464],[8.524301,47.374521],[8.524206,47.374395],[8.52419,47.374355],[8.52417,47.374288],[8.523972,47.374295],[8.52375,47.374302],[8.523382,47.374315],[8.523157,47.374322],[8.522654,47.37434],[8.52226,47.374355],[8.522167,47.374359],[8.522071,47.374413],[8.52175,47.374483],[8.52159,47.374518],[8.52155,47.374453],[8.521512,47.374408],[8.521475,47.374376],[8.521362,47.374308],[8.521309,47.374286],[8.521032,47.374174],[8.521007,47.374163],[8.520999,47.37416],[8.520957,47.374142],[8.520899,47.374117],[8.520688,47.374023],[8.520478,47.37393],[8.520295,47.373848],[8.52028,47.373842],[8.519966,47.373707],[8.519944,47.373697],[8.519905,47.37368],[8.519752,47.373613],[8.519715,47.373598],[8.519627,47.373559],[8.519578,47.373535],[8.519424,47.373462],[8.519199,47.373353],[8.518977,47.373247],[8.518933,47.373225],[8.518362,47.372945],[8.51817,47.372853],[8.518036,47.372789],[8.517648,47.372603],[8.517536,47.372537],[8.517483,47.372588],[8.517402,47.372665],[8.517347,47.37271],[8.517165,47.372841],[8.517081,47.372896],[8.517165,47.372841],[8.517347,47.37271],[8.517402,47.372665],[8.517483,47.372588],[8.517536,47.372537],[8.517584,47.372493],[8.517779,47.372309],[8.517891,47.372196],[8.51791,47.372176],[8.518003,47.372083],[8.518105,47.371987],[8.51817,47.371927],[8.51836,47.371738],[8.518584,47.371515],[8.518632,47.371461],[8.518773,47.371304],[8.518814,47.371262],[8.518884,47.371188],[8.518943,47.371124],[8.519167,47.370859],[8.51922,47.370798],[8.519236,47.370779],[8.519255,47.370757],[8.519338,47.370674],[8.519215,47.370614],[8.518765,47.370394],[8.518721,47.370373],[8.518703,47.370364],[8.518677,47.370352],[8.518571,47.370282],[8.518452,47.370318],[8.518432,47.370324],[8.518356,47.370346],[8.518288,47.370365],[8.517997,47.370447],[8.517822,47.370496],[8.517745,47.370518],[8.517688,47.370534],[8.517553,47.370572],[8.517632,47.370615],[8.517651,47.370625],[8.517748,47.37068],[8.517916,47.370782],[8.517953,47.370746],[8.518072,47.370654],[8.51818,47.370626],[8.518218,47.370653],[8.518278,47.370695],[8.518128,47.370852],[8.51809,47.370888],[8.518627,47.371215],[8.518708,47.371265],[8.518773,47.371304],[8.518632,47.371461],[8.518584,47.371515],[8.51836,47.371738],[8.51817,47.371927],[8.518105,47.371987],[8.518003,47.372083],[8.51791,47.372176],[8.517891,47.372196],[8.517779,47.372309],[8.517584,47.372493],[8.517536,47.372537],[8.517648,47.372603],[8.518036,47.372789],[8.51817,47.372853],[8.518362,47.372945],[8.518933,47.373225],[8.518977,47.373247],[8.519199,47.373353],[8.519424,47.373462],[8.519578,47.373535],[8.519627,47.373559],[8.519715,47.373598],[8.519752,47.373613],[8.519584,47.373739],[8.519556,47.373765],[8.519427,47.373879],[8.519289,47.374027],[8.519178,47.374153],[8.519035,47.374343],[8.51895,47.374477],[8.518827,47.374716],[8.518721,47.374963],[8.518689,47.375037],[8.518654,47.375129],[8.518647,47.375148],[8.518519,47.37526],[8.518456,47.375279],[8.51831,47.375327],[8.517905,47.375432],[8.516987,47.375647],[8.516763,47.375688],[8.516633,47.375706],[8.516538,47.375721],[8.516344,47.375751],[8.516206,47.375791],[8.516081,47.375827],[8.515958,47.375867],[8.515782,47.375929],[8.51561,47.375993],[8.515393,47.376086],[8.515222,47.376177],[8.515159,47.376205],[8.515068,47.376241],[8.514935,47.376282],[8.514775,47.376352],[8.51462,47.376424],[8.514457,47.376501],[8.514321,47.376583],[8.514271,47.376607],[8.514028,47.376729],[8.513747,47.376868],[8.513676,47.376905],[8.513487,47.376986],[8.51328,47.377086],[8.513052,47.377201],[8.512968,47.37724],[8.512795,47.377314],[8.512592,47.377404],[8.511988,47.377631],[8.511687,47.377751],[8.511149,47.377965],[8.510956,47.378042],[8.510891,47.378076],[8.510805,47.378132],[8.510755,47.378168],[8.510707,47.378203],[8.510687,47.378229],[8.510659,47.378259],[8.510623,47.378289],[8.510612,47.378356],[8.510609,47.378411],[8.510622,47.378459],[8.510658,47.378528],[8.510684,47.378579],[8.511187,47.379118],[8.511237,47.379169],[8.51136,47.379295],[8.51156,47.379499],[8.512249,47.380203],[8.512358,47.380318],[8.5124,47.380362],[8.512461,47.380427],[8.512589,47.380545],[8.512661,47.38052],[8.512763,47.380485],[8.5128,47.380473],[8.512835,47.380461],[8.512907,47.380437],[8.513846,47.38016],[8.514832,47.379872],[8.515002,47.379821],[8.515663,47.379626],[8.515806,47.379584],[8.515832,47.37954],[8.516151,47.379446],[8.516351,47.379685],[8.51643,47.379782],[8.516441,47.379801],[8.516451,47.379818],[8.516534,47.379957],[8.517201,47.380443],[8.517257,47.380485],[8.517329,47.380539],[8.517894,47.38097],[8.517938,47.381004],[8.517991,47.381045],[8.518282,47.38092],[8.518679,47.380755],[8.518779,47.380714],[8.519505,47.380427],[8.519555,47.380408],[8.519702,47.380354],[8.519992,47.380248],[8.520208,47.380165],[8.520443,47.380076],[8.520484,47.380061],[8.520697,47.379979],[8.520849,47.37991],[8.520885,47.379894],[8.521149,47.379769],[8.521242,47.379723],[8.521288,47.379705],[8.521317,47.379697],[8.521434,47.379675],[8.521475,47.379652],[8.521589,47.379584],[8.522274,47.379187],[8.522326,47.379157],[8.522368,47.379132],[8.522758,47.378902],[8.522789,47.378884],[8.522879,47.37883],[8.522944,47.37879],[8.522989,47.378763],[8.523003,47.378755],[8.523127,47.378682],[8.523233,47.37878],[8.52332,47.378864],[8.52334,47.378882],[8.523479,47.379015],[8.523592,47.379122],[8.523755,47.379275],[8.52387,47.379383],[8.523935,47.379441],[8.524053,47.379522],[8.524127,47.379584],[8.524409,47.379861],[8.524497,47.379947],[8.52473,47.380164],[8.524641,47.38021],[8.524641,47.380231],[8.52447,47.38032],[8.524463,47.380352],[8.524273,47.380457],[8.524463,47.380352],[8.52447,47.38032],[8.524641,47.380231],[8.524641,47.38021],[8.52473,47.380164],[8.524904,47.380331],[8.525057,47.380478],[8.525128,47.380546],[8.525178,47.380594],[8.525206,47.380613],[8.525213,47.380618],[8.525249,47.380641],[8.525282,47.380661],[8.525322,47.380683],[8.525368,47.380701],[8.525421,47.380711],[8.525476,47.380717],[8.525531,47.380717],[8.525586,47.380713],[8.52564,47.380704],[8.525691,47.38069],[8.525739,47.380671],[8.525786,47.38065],[8.525901,47.380591],[8.526291,47.380382],[8.526911,47.380066],[8.526965,47.380037],[8.527426,47.379793],[8.527457,47.379777],[8.527465,47.379773],[8.527588,47.379708],[8.527699,47.37965],[8.527799,47.379598],[8.527849,47.379573],[8.527943,47.379527],[8.528077,47.37946],[8.52828,47.379359],[8.529112,47.378945],[8.529183,47.378909],[8.529488,47.378757],[8.529732,47.378635],[8.529697,47.378602],[8.529686,47.378592],[8.529656,47.378563],[8.529636,47.378545],[8.529627,47.378537],[8.529636,47.378545],[8.529656,47.378563],[8.529686,47.378592],[8.529697,47.378602],[8.529732,47.378635],[8.529978,47.378513],[8.529985,47.378509],[8.530145,47.378429],[8.530251,47.378376],[8.530303,47.378349],[8.530397,47.378297],[8.530314,47.378241],[8.530265,47.378195],[8.530226,47.37816],[8.530012,47.377962],[8.529924,47.377884],[8.529841,47.377808],[8.5293,47.377307],[8.529174,47.377192],[8.528886,47.376925],[8.528827,47.376876],[8.528761,47.376819],[8.528727,47.37679],[8.528644,47.37673],[8.52827,47.37648],[8.528198,47.376428],[8.52812,47.376379],[8.527905,47.376239],[8.527869,47.376215],[8.527843,47.376198],[8.527526,47.37599],[8.527495,47.375974],[8.527364,47.375902],[8.527288,47.37586],[8.527014,47.375697],[8.526984,47.37568],[8.526951,47.37566],[8.526912,47.37563],[8.526836,47.375565],[8.526723,47.375464],[8.526681,47.375431],[8.52659,47.375359],[8.526475,47.375278],[8.526119,47.375046],[8.526028,47.374983],[8.526,47.375011],[8.525954,47.375032],[8.525617,47.375155],[8.525321,47.37525],[8.525009,47.37535],[8.524945,47.375371],[8.524999,47.37545],[8.525116,47.375614],[8.525125,47.375626],[8.52533,47.375901],[8.525475,47.376091],[8.525561,47.376209],[8.52559,47.376251],[8.525618,47.376291],[8.525702,47.376429],[8.525779,47.376547],[8.525803,47.376581],[8.526019,47.376884],[8.526313,47.3773],[8.526369,47.377379],[8.526448,47.377514]]}}