{"type":"Feature","properties":{"key":"hoengger-hoehenzug"},"geometry":{"type":"LineString","coordinates":[[8.499272,47.402046],[8.499272,47.402046],[8.499097,47.402086],[8.499045,47.402091],[8.499026,47.402093],[8.498962,47.402097],[8.498819,47.4021],[8.498616,47.402091],[8.498382,47.402069],[8.497988,47.402032],[8.497914,47.40203],[8.497847,47.402031],[8.497795,47.402036],[8.497789,47.402022],[8.497778,47.401992],[8.497725,47.401892],[8.497714,47.401845],[8.497729,47.401816],[8.49775,47.40179],[8.498011,47.40148],[8.498225,47.401236],[8.498602,47.400796],[8.49877,47.400627],[8.498961,47.400473],[8.499133,47.400362],[8.499396,47.40023],[8.50079,47.39967],[8.501589,47.399359],[8.501609,47.399294],[8.501645,47.399259],[8.501791,47.399118],[8.502117,47.398802],[8.502295,47.398659],[8.502398,47.398602],[8.502811,47.398469],[8.502866,47.398447],[8.502924,47.398417],[8.502987,47.398362],[8.503035,47.398297],[8.503128,47.398158],[8.503205,47.398038],[8.50335,47.397813],[8.503741,47.397324],[8.50396,47.397065],[8.504296,47.396812],[8.504579,47.396601],[8.504608,47.39658],[8.504944,47.396339],[8.504962,47.396315],[8.504942,47.396279],[8.504646,47.396381],[8.504448,47.396476],[8.504327,47.396524],[8.503629,47.396894],[8.503279,47.397086],[8.502999,47.39724],[8.502907,47.397275],[8.502621,47.397425],[8.502621,47.397425],[8.502474,47.397513],[8.502441,47.397538],[8.502351,47.397606],[8.50225,47.397673],[8.502167,47.397777],[8.502016,47.397926],[8.50178,47.398063],[8.501602,47.398168],[8.501415,47.398273],[8.501355,47.398297],[8.500879,47.398487],[8.500303,47.398686],[8.500007,47.398777],[8.499701,47.39886],[8.499149,47.399003],[8.498926,47.399096],[8.498637,47.399174],[8.498334,47.399244],[8.498221,47.39927],[8.497627,47.399381],[8.497462,47.399409],[8.497121,47.399466],[8.496791,47.399521],[8.495553,47.399748],[8.495353,47.399782],[8.495223,47.399882],[8.495156,47.39992],[8.495127,47.399931],[8.494915,47.400005],[8.494615,47.400112],[8.494392,47.400184],[8.494292,47.400206],[8.494146,47.400226],[8.493907,47.400302],[8.493765,47.400343],[8.493591,47.400393],[8.493241,47.400483],[8.492557,47.400666],[8.491778,47.400867],[8.491287,47.401005],[8.49103,47.401083],[8.490567,47.401242],[8.490396,47.401312],[8.490158,47.401406],[8.489784,47.401551],[8.489551,47.401646],[8.488927,47.401865],[8.488927,47.401865],[8.488557,47.401979],[8.488168,47.402111],[8.487708,47.402296],[8.48765,47.402319],[8.4876,47.402343],[8.48712,47.402573],[8.486882,47.402714],[8.486707,47.402836],[8.486587,47.40293],[8.486382,47.403098],[8.486328,47.40315],[8.486194,47.403277],[8.486072,47.403395],[8.485968,47.403502],[8.485899,47.403624],[8.485887,47.403667],[8.485882,47.403687],[8.485869,47.403729],[8.485818,47.403828],[8.485838,47.403865],[8.485851,47.403889],[8.485869,47.403921],[8.485741,47.403954],[8.485611,47.403997],[8.485125,47.404191],[8.484878,47.404274],[8.484331,47.404514],[8.48397,47.404674],[8.48381,47.404742],[8.483607,47.404818],[8.483294,47.404906],[8.483077,47.404948],[8.482107,47.405096],[8.481775,47.405147],[8.481398,47.405191],[8.481065,47.405214],[8.481016,47.405217],[8.480768,47.405232],[8.480764,47.405289],[8.480757,47.405376],[8.480767,47.405409],[8.480799,47.405511],[8.480844,47.40559],[8.480986,47.405837],[8.481024,47.405899],[8.481083,47.405996],[8.481219,47.406195],[8.481295,47.40632],[8.481317,47.406418],[8.481325,47.406511],[8.481299,47.406627],[8.481228,47.406733],[8.481107,47.406835],[8.480949,47.406922],[8.480743,47.406978],[8.480103,47.407139],[8.47915,47.407387],[8.478916,47.407452],[8.478794,47.407491],[8.478703,47.407523],[8.478602,47.407567],[8.478517,47.407607],[8.478417,47.407663],[8.478274,47.407765],[8.478166,47.407864],[8.478118,47.40792],[8.478076,47.407988],[8.478042,47.408056],[8.478015,47.408117],[8.478001,47.408168],[8.477986,47.408236],[8.47798,47.408304],[8.47798,47.408354],[8.477983,47.408403],[8.478001,47.408494],[8.47802,47.408562],[8.478086,47.4087],[8.478198,47.408851],[8.478414,47.40902],[8.478484,47.409062],[8.478699,47.409192],[8.479137,47.409423],[8.479215,47.409471],[8.479336,47.40956],[8.479442,47.409652],[8.479564,47.409793],[8.479603,47.409856],[8.47963,47.40992],[8.47963,47.40992],[8.479663,47.410009],[8.479679,47.410069],[8.479686,47.410183],[8.479679,47.41024],[8.479676,47.410272],[8.479664,47.41033],[8.479636,47.410402],[8.479605,47.410465],[8.479474,47.41065],[8.479258,47.41084],[8.479,47.411023],[8.478417,47.411381],[8.478147,47.411612],[8.478018,47.411775],[8.477949,47.411932],[8.47792,47.412137],[8.477935,47.412239],[8.477961,47.412339],[8.478007,47.412439],[8.478069,47.412526],[8.478206,47.412671],[8.478383,47.412797],[8.478538,47.412874],[8.478758,47.412962],[8.479941,47.413314],[8.480702,47.413523],[8.480974,47.413598],[8.481096,47.413628],[8.481602,47.41375],[8.4821,47.41387],[8.48286,47.414064],[8.483156,47.414083],[8.483225,47.414084],[8.483295,47.414078],[8.483357,47.414061],[8.483408,47.414035],[8.483454,47.413992],[8.483583,47.413836],[8.483597,47.413685],[8.483608,47.41357],[8.48363,47.413373],[8.483669,47.413039],[8.483695,47.412814],[8.483718,47.412677],[8.483748,47.412523],[8.483784,47.412435],[8.483828,47.412352],[8.483858,47.41231],[8.483885,47.412268],[8.483974,47.412169],[8.484016,47.412119],[8.484093,47.412047],[8.484153,47.411991],[8.484194,47.411962],[8.484354,47.411852],[8.4851,47.41143],[8.485429,47.411218],[8.485654,47.411009],[8.485839,47.410811],[8.485937,47.410707],[8.486028,47.410619],[8.486099,47.410551],[8.486262,47.410395],[8.486328,47.410332],[8.486539,47.410146],[8.486681,47.410047],[8.486826,47.409959],[8.487922,47.409396],[8.487922,47.409396],[8.488022,47.409342],[8.488194,47.409232],[8.488383,47.409086],[8.488578,47.408896],[8.488638,47.408832],[8.48871,47.408755],[8.488997,47.408445],[8.489039,47.408399],[8.489329,47.408086],[8.489369,47.408042],[8.489518,47.407883],[8.489762,47.40762],[8.489836,47.407546],[8.48996,47.407423],[8.490042,47.407353],[8.490192,47.407219],[8.49032,47.407105],[8.490382,47.407053],[8.490757,47.406721],[8.490957,47.406546],[8.491053,47.40646],[8.491208,47.406322],[8.491415,47.406132],[8.491585,47.406006],[8.491691,47.405943],[8.491784,47.405894],[8.4924,47.405602],[8.492427,47.405589],[8.492636,47.405487],[8.49284,47.405387],[8.493941,47.404857],[8.494063,47.404799],[8.494206,47.404728],[8.494536,47.404572],[8.494758,47.404466],[8.494977,47.404368],[8.495101,47.404321],[8.495736,47.404128],[8.495997,47.40405],[8.496162,47.403999],[8.496244,47.403975],[8.496431,47.403908],[8.496503,47.403875],[8.496591,47.403832],[8.496991,47.40366],[8.497274,47.403528],[8.49735,47.403492],[8.497671,47.403337],[8.497799,47.403276],[8.498029,47.403138],[8.498161,47.403041],[8.498242,47.402982],[8.498312,47.402925],[8.4984,47.402858],[8.498484,47.402794],[8.498526,47.402762],[8.498709,47.402661],[8.498943,47.402536],[8.499357,47.402324],[8.499339,47.402207],[8.499336,47.402199],[8.499314,47.402148],[8.499278,47.402061],[8.499272,47.402046],[8.499272,47.402046]]}}