{"type":"Feature","properties":{"key":"oerliker-orbit"},"geometry":{"type":"LineString","coordinates":[[8.546612,47.411927],[8.546574,47.412044],[8.546537,47.41215],[8.546524,47.412185],[8.546499,47.412257],[8.546551,47.412344],[8.546568,47.41257],[8.546568,47.412602],[8.546567,47.412658],[8.546559,47.412734],[8.546452,47.413095],[8.546435,47.413152],[8.546391,47.413259],[8.546425,47.413332],[8.546555,47.413612],[8.546563,47.41363],[8.546573,47.413651],[8.546639,47.413812],[8.546332,47.413793],[8.546274,47.413794],[8.546129,47.413797],[8.545896,47.413813],[8.545744,47.413825],[8.545685,47.41383],[8.54555,47.413843],[8.545422,47.413855],[8.545331,47.413859],[8.545253,47.413864],[8.545128,47.41387],[8.544944,47.413881],[8.544502,47.413904],[8.544374,47.413911],[8.544325,47.413914],[8.544207,47.41392],[8.54409,47.413926],[8.544021,47.41393],[8.543766,47.413942],[8.543534,47.413954],[8.542899,47.413983],[8.542868,47.413984],[8.542675,47.413991],[8.542675,47.413991],[8.542868,47.413984],[8.542899,47.413983],[8.543534,47.413954],[8.543766,47.413942],[8.544021,47.41393],[8.54409,47.413926],[8.544207,47.41392],[8.544325,47.413914],[8.544374,47.413911],[8.544502,47.413904],[8.544944,47.413881],[8.545128,47.41387],[8.545253,47.413864],[8.545331,47.413859],[8.545422,47.413855],[8.54555,47.413843],[8.545685,47.41383],[8.545744,47.413825],[8.545896,47.413813],[8.546129,47.413797],[8.546274,47.413794],[8.546332,47.413793],[8.546639,47.413812],[8.54682,47.413831],[8.546889,47.413836],[8.547282,47.413865],[8.547699,47.413905],[8.548101,47.413945],[8.548339,47.413968],[8.548896,47.414025],[8.549106,47.414047],[8.549442,47.414081],[8.550037,47.414142],[8.550484,47.414185],[8.550504,47.414187],[8.550645,47.414198],[8.550812,47.414203],[8.550875,47.414206],[8.551034,47.414257],[8.551076,47.414271],[8.551231,47.414321],[8.551293,47.414426],[8.551319,47.414465],[8.551578,47.41487],[8.551613,47.414924],[8.551694,47.41505],[8.551789,47.41518],[8.552051,47.415468],[8.552778,47.416262],[8.552811,47.416298],[8.552873,47.416367],[8.553165,47.416685],[8.553235,47.416761],[8.553235,47.416761],[8.553579,47.417138],[8.553768,47.417333],[8.553819,47.417385],[8.554202,47.417804],[8.554241,47.417847],[8.554356,47.417972],[8.55457,47.418214],[8.554642,47.418297],[8.555193,47.418904],[8.555464,47.419192],[8.555693,47.419412],[8.555736,47.419453],[8.555827,47.41955],[8.556063,47.419814],[8.556174,47.419938],[8.55624,47.419993],[8.556324,47.420062],[8.556363,47.420094],[8.556443,47.420155],[8.556638,47.420057],[8.556868,47.419964],[8.557085,47.419877],[8.557313,47.419799],[8.558019,47.419511],[8.558073,47.419489],[8.558143,47.419462],[8.558271,47.419468],[8.558457,47.419398],[8.558868,47.419248],[8.559703,47.418909],[8.560531,47.418562],[8.560575,47.418507],[8.560575,47.418507],[8.560793,47.418372],[8.560983,47.418302],[8.561183,47.418221],[8.561651,47.418021],[8.561847,47.417937],[8.562005,47.4179],[8.562148,47.417882],[8.562314,47.417826],[8.564171,47.417063],[8.5644,47.416969],[8.56465,47.41685],[8.56471,47.416787],[8.564897,47.416667],[8.56508,47.416542],[8.565131,47.416507],[8.565315,47.416413],[8.565108,47.416343],[8.56503,47.416314],[8.564361,47.416066],[8.56394,47.415879],[8.563525,47.415698],[8.563388,47.415646],[8.563135,47.415551],[8.562757,47.415398],[8.562603,47.415333],[8.562407,47.415251],[8.562304,47.415206],[8.562078,47.415114],[8.561725,47.414983],[8.561417,47.41489],[8.561063,47.414795],[8.560976,47.414773],[8.560896,47.414754],[8.56072,47.414722],[8.560542,47.414691],[8.560353,47.414659],[8.560131,47.414628],[8.559913,47.414599],[8.559756,47.41458],[8.559616,47.414565],[8.559465,47.414555],[8.559384,47.414551],[8.558928,47.414535],[8.558747,47.414534],[8.558627,47.414531],[8.558477,47.414527],[8.558284,47.414521],[8.558108,47.414516],[8.558032,47.414514],[8.557806,47.414509],[8.557726,47.414506],[8.556898,47.414495],[8.556693,47.414491],[8.556645,47.41449],[8.556645,47.41449],[8.555681,47.414472],[8.555312,47.414467],[8.554915,47.414464],[8.554644,47.414462],[8.554635,47.414462],[8.554582,47.414462],[8.554372,47.414456],[8.554194,47.414449],[8.553513,47.414422],[8.55334,47.414411],[8.553266,47.414406],[8.553071,47.414394],[8.553008,47.414423],[8.552971,47.414433],[8.55293,47.414439],[8.552861,47.414431],[8.552771,47.414422],[8.552018,47.414349],[8.55185,47.41434],[8.551524,47.414333],[8.551425,47.414329],[8.551231,47.414321],[8.551076,47.414271],[8.551034,47.414257],[8.550875,47.414206],[8.550867,47.41418],[8.550843,47.414109],[8.550805,47.413995],[8.550796,47.413968],[8.550642,47.413505],[8.550555,47.413191],[8.550527,47.413075],[8.550517,47.413019],[8.550512,47.412992],[8.550422,47.412537],[8.550381,47.412325],[8.550375,47.412284],[8.550413,47.41222],[8.550449,47.412198],[8.550489,47.412193],[8.550584,47.41218],[8.550645,47.412175],[8.550701,47.41217],[8.550847,47.412166],[8.550877,47.412165],[8.550972,47.412166],[8.552215,47.412187],[8.552377,47.412191],[8.55252,47.412194],[8.552734,47.412197],[8.55318,47.412205],[8.553802,47.412215],[8.554015,47.412219],[8.554168,47.412221],[8.554247,47.412221],[8.554256,47.411987],[8.554258,47.411952],[8.554269,47.411651],[8.554271,47.411608],[8.554303,47.410796],[8.554305,47.410739],[8.554511,47.410743],[8.555481,47.410753],[8.555862,47.41076],[8.556225,47.410765],[8.556658,47.410772],[8.557678,47.41079],[8.557678,47.41079],[8.557678,47.41079],[8.556658,47.410772],[8.556225,47.410765],[8.555862,47.41076],[8.555481,47.410753],[8.554511,47.410743],[8.554305,47.410739],[8.554207,47.410737],[8.554114,47.410735],[8.553667,47.410726],[8.553622,47.410724],[8.552991,47.410713],[8.55287,47.41071],[8.552671,47.410703],[8.552577,47.4107],[8.552392,47.410693],[8.552051,47.410672],[8.552014,47.41067],[8.551702,47.410655],[8.55131,47.410636],[8.551059,47.410621],[8.551021,47.410619],[8.550847,47.410609],[8.550492,47.410588],[8.550468,47.410587],[8.550405,47.410583],[8.550283,47.410576],[8.550167,47.410566],[8.550043,47.410556],[8.549998,47.410553],[8.549995,47.410538],[8.549975,47.410439],[8.549827,47.409799],[8.549792,47.409667],[8.549788,47.409652],[8.549782,47.40963],[8.549744,47.409513],[8.549729,47.409466],[8.549499,47.409614],[8.54926,47.409744],[8.54917,47.409786],[8.549131,47.409807],[8.548802,47.410009],[8.54847,47.410212],[8.548427,47.410239],[8.548352,47.410285],[8.548216,47.410363],[8.548082,47.410444],[8.548011,47.410487],[8.547987,47.410502],[8.54767,47.410696],[8.547491,47.410805],[8.547294,47.410926],[8.547054,47.411073],[8.546993,47.41111],[8.546846,47.4112],[8.546836,47.411256],[8.54679,47.411389],[8.546778,47.411424],[8.546685,47.411694],[8.546612,47.411927],[8.546612,47.411927]]}}