{"type":"Feature","properties":{"key":"schwamendinger-schlaufe"},"geometry":{"type":"LineString","coordinates":[[8.574162,47.404316],[8.574162,47.404316],[8.574231,47.404337],[8.57436,47.404362],[8.57474,47.404435],[8.574872,47.40446],[8.574976,47.40448],[8.575219,47.404536],[8.576011,47.404715],[8.576561,47.40484],[8.576598,47.404848],[8.576675,47.404866],[8.576844,47.404906],[8.577167,47.404979],[8.577277,47.405004],[8.57856,47.405286],[8.580882,47.405824],[8.580926,47.405835],[8.581146,47.405895],[8.581181,47.405903],[8.581344,47.405939],[8.581525,47.405979],[8.581545,47.405983],[8.581594,47.405994],[8.581711,47.40602],[8.581882,47.406056],[8.582267,47.406137],[8.582875,47.406264],[8.582947,47.406279],[8.583392,47.406387],[8.583631,47.406446],[8.58427,47.406575],[8.584317,47.406585],[8.584464,47.406618],[8.584609,47.406661],[8.58469,47.406683],[8.58477,47.406708],[8.584837,47.406734],[8.584967,47.406773],[8.585273,47.406853],[8.585426,47.40686],[8.585616,47.406902],[8.585663,47.406912],[8.586022,47.406976],[8.586141,47.406953],[8.586258,47.406941],[8.586371,47.406935],[8.586458,47.406933],[8.586546,47.406933],[8.586646,47.406927],[8.586698,47.406924],[8.586841,47.406907],[8.586963,47.406883],[8.588834,47.406335],[8.590847,47.405773],[8.591049,47.40572],[8.591304,47.40565],[8.59134,47.40564],[8.59222,47.405395],[8.592331,47.405365],[8.592883,47.405211],[8.594675,47.404702],[8.594949,47.404626],[8.595013,47.404725],[8.591442,47.405724],[8.591397,47.405737],[8.591363,47.405746],[8.591184,47.405798],[8.591051,47.405833],[8.590671,47.405941],[8.589259,47.406335],[8.588847,47.406451],[8.5874,47.406862],[8.5874,47.406862],[8.587292,47.406892],[8.587198,47.406929],[8.587103,47.40698],[8.586956,47.407062],[8.586863,47.407106],[8.586794,47.407132],[8.586718,47.407154],[8.586626,47.40717],[8.586543,47.407178],[8.586274,47.40719],[8.586044,47.4072],[8.585943,47.407173],[8.585898,47.407104],[8.585914,47.407061],[8.586022,47.406976],[8.586141,47.406953],[8.586258,47.406941],[8.586371,47.406935],[8.586458,47.406933],[8.586546,47.406933],[8.586646,47.406927],[8.586698,47.406924],[8.586841,47.406907],[8.586963,47.406883],[8.588834,47.406335],[8.590847,47.405773],[8.591049,47.40572],[8.591184,47.405798],[8.591235,47.405881],[8.59128,47.405995],[8.591503,47.406307],[8.591602,47.406454],[8.59212,47.407179],[8.592389,47.407524],[8.592548,47.407676],[8.59277,47.407945],[8.592992,47.40824],[8.593043,47.40831],[8.593097,47.408379],[8.593184,47.408475],[8.593273,47.408563],[8.593394,47.408654],[8.593535,47.408743],[8.593747,47.408847],[8.593883,47.408906],[8.594051,47.40897],[8.594187,47.409019],[8.594187,47.409019],[8.594317,47.409071],[8.59439,47.409122],[8.594418,47.409131],[8.594462,47.409119],[8.594509,47.409115],[8.594556,47.409117],[8.5946,47.409127],[8.59465,47.409149],[8.594689,47.409179],[8.594714,47.409216],[8.594723,47.409255],[8.594714,47.409295],[8.59469,47.409332],[8.594648,47.409363],[8.594595,47.409385],[8.594535,47.409396],[8.594473,47.409393],[8.594452,47.409429],[8.594424,47.40949],[8.594376,47.409574],[8.594328,47.409635],[8.594233,47.40972],[8.594149,47.409786],[8.5941,47.409835],[8.593993,47.409898],[8.593777,47.409983],[8.593485,47.410081],[8.592613,47.410358],[8.592494,47.410396],[8.592458,47.410407],[8.592448,47.410439],[8.592424,47.410467],[8.592388,47.410489],[8.592345,47.410503],[8.592297,47.410506],[8.59225,47.4105],[8.592208,47.410485],[8.592069,47.410513],[8.591903,47.41056],[8.591828,47.410558],[8.591533,47.410644],[8.591469,47.41069],[8.591394,47.410712],[8.591322,47.410733],[8.591226,47.410735],[8.590847,47.410853],[8.590783,47.410873],[8.590714,47.410895],[8.590321,47.411017],[8.590233,47.411045],[8.590177,47.411062],[8.590112,47.411117],[8.590029,47.411143],[8.589906,47.41118],[8.589809,47.411183],[8.589537,47.411263],[8.589324,47.411327],[8.58929,47.411374],[8.588325,47.411666],[8.588095,47.411736],[8.588026,47.411735],[8.587722,47.411828],[8.587451,47.411911],[8.587397,47.411953],[8.587317,47.411977],[8.586568,47.412205],[8.586303,47.412282],[8.586079,47.412339],[8.585955,47.412347],[8.585171,47.412492],[8.585095,47.41253],[8.584282,47.412682],[8.583848,47.41277],[8.583735,47.412789],[8.583675,47.412786],[8.583602,47.412776],[8.583552,47.412766],[8.583499,47.412741],[8.583445,47.412689],[8.58337,47.41264],[8.583124,47.412482],[8.582792,47.412268],[8.582637,47.412167],[8.582537,47.412105],[8.582462,47.412076],[8.582452,47.412074],[8.582404,47.412065],[8.582398,47.412092],[8.582377,47.412122],[8.582343,47.412147],[8.582299,47.412163],[8.58225,47.412169],[8.582249,47.412202],[8.582202,47.413252],[8.582192,47.413517],[8.582202,47.413252],[8.582249,47.412202],[8.58225,47.412169],[8.582198,47.412164],[8.582151,47.412148],[8.582114,47.412122],[8.582093,47.412089],[8.582088,47.412053],[8.582099,47.412023],[8.582121,47.411996],[8.582154,47.411975],[8.582178,47.411915],[8.582192,47.411862],[8.582169,47.411672],[8.582106,47.411422],[8.582043,47.411262],[8.581936,47.411069],[8.581839,47.410926],[8.581732,47.410797],[8.581514,47.410579],[8.581172,47.410326],[8.580667,47.409972],[8.58053,47.409876],[8.580446,47.409806],[8.580349,47.409727],[8.580331,47.409711],[8.580152,47.409539],[8.579989,47.409333],[8.579845,47.409117],[8.579752,47.408934],[8.579727,47.408883],[8.579694,47.408743],[8.579433,47.408809],[8.57939,47.40882],[8.579123,47.408887],[8.577107,47.409397],[8.576341,47.409588],[8.576086,47.409651],[8.575856,47.40971],[8.575802,47.409724],[8.575383,47.409831],[8.574851,47.409965],[8.573954,47.410193],[8.573506,47.410308],[8.573283,47.410365],[8.573061,47.410424],[8.573012,47.410438],[8.572798,47.410532],[8.572556,47.410603],[8.572491,47.410621],[8.572394,47.410651],[8.572139,47.410729],[8.571827,47.410825],[8.571694,47.410867],[8.571503,47.410944],[8.571321,47.411029],[8.57122,47.411084],[8.571059,47.411188],[8.570911,47.41128],[8.570692,47.411423],[8.570599,47.411483],[8.570512,47.411535],[8.570423,47.411585],[8.570304,47.411647],[8.570304,47.411647],[8.570081,47.411707],[8.570218,47.411591],[8.57033,47.411529],[8.570466,47.411446],[8.57066,47.411316],[8.570749,47.411253],[8.570855,47.411181],[8.570891,47.411156],[8.570951,47.411114],[8.571159,47.410977],[8.571339,47.410884],[8.571482,47.410819],[8.571612,47.410769],[8.57175,47.410722],[8.57188,47.410683],[8.571996,47.410652],[8.572092,47.410625],[8.572245,47.410589],[8.572283,47.410472],[8.572289,47.410371],[8.572289,47.410337],[8.572287,47.410247],[8.572289,47.410067],[8.572283,47.409741],[8.572282,47.409686],[8.572278,47.409443],[8.572274,47.409326],[8.57213,47.409319],[8.571906,47.409312],[8.571664,47.409295],[8.571398,47.409274],[8.571317,47.409262],[8.571199,47.409246],[8.570984,47.409209],[8.570929,47.409197],[8.57086,47.409179],[8.570686,47.409128],[8.570428,47.409031],[8.570221,47.40894],[8.570131,47.408896],[8.569981,47.408822],[8.569942,47.408795],[8.569844,47.408727],[8.569652,47.408566],[8.569563,47.408494],[8.569515,47.408455],[8.569175,47.40815],[8.568325,47.407421],[8.568058,47.407191],[8.567944,47.407095],[8.567766,47.406942],[8.567638,47.406843],[8.567511,47.406744],[8.567454,47.406701],[8.567308,47.406593],[8.567452,47.40653],[8.567502,47.40651],[8.567581,47.406477],[8.567647,47.406448],[8.568116,47.406249],[8.568651,47.406021],[8.568768,47.405971],[8.568933,47.405911],[8.569395,47.405743],[8.569373,47.405694],[8.569354,47.405649],[8.569337,47.405607],[8.569324,47.405514],[8.569337,47.405378],[8.569352,47.405279],[8.569362,47.405201],[8.569413,47.404864],[8.569426,47.404787],[8.569446,47.404653],[8.569453,47.404602],[8.569495,47.40424],[8.569515,47.404064],[8.569522,47.40401],[8.569521,47.403968],[8.569521,47.403914],[8.569691,47.403894],[8.569728,47.403888],[8.570081,47.403851],[8.570271,47.403828],[8.571236,47.403711],[8.571331,47.403704],[8.571432,47.403702],[8.571496,47.403707],[8.571586,47.403715],[8.571655,47.403722],[8.571699,47.403727],[8.57175,47.403738],[8.571798,47.403751],[8.57185,47.403768],[8.57188,47.403779],[8.57237,47.403998],[8.572556,47.404078],[8.572711,47.404139],[8.572764,47.404159],[8.572786,47.404167],[8.572883,47.404202],[8.572983,47.404228],[8.573081,47.404248],[8.573193,47.404264],[8.573323,47.40427],[8.573436,47.404269],[8.573541,47.40426],[8.573648,47.404247],[8.573746,47.404226],[8.573828,47.404203],[8.573948,47.404169],[8.574029,47.404226],[8.574058,47.404247],[8.574113,47.404285],[8.574162,47.404316]]}}