{"type":"Feature","properties":{"key":"seebach-sprint"},"geometry":{"type":"LineString","coordinates":[[8.548526,47.424631],[8.548402,47.424773],[8.548255,47.424941],[8.548172,47.425039],[8.548037,47.4252],[8.54765,47.425657],[8.54758,47.42574],[8.547547,47.425779],[8.547465,47.425876],[8.547367,47.425988],[8.547329,47.426029],[8.546986,47.426431],[8.546555,47.426947],[8.546458,47.427064],[8.546447,47.427077],[8.546367,47.427172],[8.546336,47.427269],[8.546302,47.42731],[8.546218,47.427411],[8.546358,47.427467],[8.546554,47.427556],[8.547117,47.427817],[8.547258,47.427889],[8.54736,47.427944],[8.547479,47.428013],[8.547669,47.42813],[8.54813,47.428477],[8.548339,47.428644],[8.548648,47.428929],[8.549066,47.429375],[8.549341,47.429671],[8.549379,47.429739],[8.549522,47.429899],[8.549546,47.429922],[8.549569,47.42994],[8.549604,47.429967],[8.549707,47.429978],[8.549783,47.430007],[8.549836,47.430043],[8.549874,47.430092],[8.549888,47.43015],[8.549886,47.430285],[8.54989,47.430344],[8.549916,47.430399],[8.549968,47.430454],[8.550029,47.430494],[8.550087,47.430525],[8.550266,47.43059],[8.550317,47.430615],[8.550358,47.430649],[8.550386,47.430691],[8.550403,47.430741],[8.550401,47.430787],[8.550383,47.430826],[8.550432,47.430905],[8.550483,47.430984],[8.550523,47.431039],[8.55061,47.431122],[8.550818,47.431395],[8.551308,47.432028],[8.551424,47.43217],[8.551596,47.432381],[8.551877,47.432715],[8.551986,47.432841],[8.552085,47.432954],[8.553436,47.434518],[8.553559,47.434618],[8.553833,47.434887],[8.554286,47.435406],[8.554716,47.435908],[8.55476,47.435967],[8.554836,47.436069],[8.554984,47.436259],[8.555055,47.436336],[8.555257,47.436619],[8.555348,47.436742],[8.555461,47.436845],[8.555577,47.436933],[8.555691,47.437003],[8.555805,47.43706],[8.556002,47.437137],[8.556226,47.43723],[8.556167,47.437303],[8.556032,47.437261],[8.5559,47.437216],[8.555747,47.437151],[8.555594,47.437067],[8.555477,47.436988],[8.555369,47.436905],[8.555256,47.436784],[8.555048,47.436545],[8.555015,47.436477],[8.554826,47.436263],[8.554716,47.436131],[8.554292,47.435636],[8.554171,47.435494],[8.554074,47.435409],[8.553017,47.434199],[8.552931,47.434089],[8.552812,47.433954],[8.552542,47.433695],[8.552413,47.43356],[8.552033,47.433116],[8.551944,47.433011],[8.551841,47.432894],[8.551691,47.432719],[8.551631,47.432648],[8.551574,47.432577],[8.551518,47.432506],[8.551466,47.432434],[8.551411,47.432362],[8.551356,47.432291],[8.551297,47.43222],[8.551237,47.43215],[8.551099,47.432001],[8.550828,47.431717],[8.550645,47.431527],[8.550374,47.431228],[8.550365,47.431218],[8.550323,47.431139],[8.550293,47.431103],[8.550191,47.430995],[8.550158,47.430967],[8.550122,47.430942],[8.550073,47.43094],[8.550022,47.430931],[8.549963,47.430909],[8.549902,47.430869],[8.549865,47.430821],[8.549846,47.43076],[8.549851,47.430622],[8.549838,47.43055],[8.549798,47.430492],[8.549749,47.430447],[8.549661,47.430392],[8.549546,47.430347],[8.549465,47.430318],[8.549404,47.430284],[8.549364,47.430246],[8.549341,47.430212],[8.54933,47.430171],[8.549332,47.430139],[8.549341,47.430107],[8.549372,47.430057],[8.549429,47.430013],[8.549505,47.42998],[8.549604,47.429967],[8.549707,47.429978],[8.549783,47.430007],[8.549836,47.430043],[8.549874,47.430092],[8.549888,47.43015],[8.549886,47.430285],[8.54989,47.430344],[8.549916,47.430399],[8.549968,47.430454],[8.550029,47.430494],[8.550087,47.430525],[8.550266,47.43059],[8.550317,47.430615],[8.550358,47.430649],[8.550386,47.430691],[8.550403,47.430741],[8.550401,47.430787],[8.550383,47.430826],[8.550432,47.430905],[8.550483,47.430984],[8.550523,47.431039],[8.55061,47.431122],[8.550818,47.431395],[8.551308,47.432028],[8.551424,47.43217],[8.551596,47.432381],[8.551877,47.432715],[8.551986,47.432841],[8.552085,47.432954],[8.553436,47.434518],[8.553517,47.434633],[8.554005,47.435192],[8.554148,47.435352],[8.554332,47.435572],[8.554394,47.435652],[8.55446,47.435747],[8.554511,47.435889],[8.554538,47.436051],[8.554539,47.436217],[8.554508,47.436368],[8.554441,47.436516],[8.554328,47.436672],[8.554242,47.43677],[8.554132,47.43687],[8.55405,47.436924],[8.553915,47.437007],[8.553799,47.437067],[8.553646,47.437142],[8.55338,47.43728],[8.553233,47.437372],[8.553123,47.437449],[8.552975,47.437589],[8.552892,47.437674],[8.552809,47.437731],[8.552543,47.438032],[8.552362,47.438237],[8.552232,47.438374],[8.552092,47.43845],[8.551885,47.438676],[8.551722,47.438862],[8.551217,47.439432],[8.55088,47.439808],[8.550742,47.439962],[8.550554,47.440155],[8.550393,47.440313],[8.549898,47.440771],[8.549843,47.440822],[8.549903,47.440934],[8.549843,47.440822],[8.549898,47.440771],[8.550393,47.440313],[8.550554,47.440155],[8.550742,47.439962],[8.55088,47.439808],[8.551217,47.439432],[8.551722,47.438862],[8.551885,47.438676],[8.552092,47.43845],[8.552144,47.43836],[8.552244,47.438241],[8.552974,47.437415],[8.553168,47.437196],[8.553365,47.436986],[8.553655,47.436712],[8.553889,47.436498],[8.554023,47.436385],[8.554091,47.43635],[8.554168,47.436294],[8.554251,47.436245],[8.554342,47.436196],[8.554431,47.436159],[8.55452,47.436138],[8.554582,47.43613],[8.554647,47.436125],[8.554716,47.436131],[8.554781,47.436146],[8.554831,47.436165],[8.554901,47.436204],[8.554984,47.436259],[8.555055,47.436336],[8.555257,47.436619],[8.555348,47.436742],[8.555461,47.436845],[8.555577,47.436933],[8.555691,47.437003],[8.555805,47.43706],[8.556002,47.437137],[8.556226,47.43723],[8.556265,47.43717],[8.556296,47.43711],[8.556418,47.436794],[8.556612,47.436295],[8.556659,47.436213],[8.556716,47.43613],[8.556823,47.436004],[8.556904,47.435931],[8.556953,47.435883],[8.557019,47.435829],[8.557101,47.435764],[8.557149,47.43573],[8.557202,47.435698],[8.557241,47.435669],[8.557292,47.435638],[8.55733,47.43562],[8.557353,47.435613],[8.557411,47.435602],[8.557463,47.435596],[8.557463,47.435596],[8.557501,47.435594],[8.557549,47.435593],[8.557603,47.435596],[8.557663,47.435602],[8.557723,47.435613],[8.557765,47.435626],[8.557806,47.435644],[8.557858,47.435676],[8.557928,47.435708],[8.558213,47.435864],[8.558272,47.435895],[8.558292,47.435906],[8.558336,47.435924],[8.558377,47.435936],[8.558411,47.435943],[8.558451,47.435948],[8.558486,47.435952],[8.558513,47.435953],[8.558545,47.435954],[8.55862,47.435944],[8.558667,47.435934],[8.558731,47.435913],[8.558794,47.435884],[8.558883,47.435836],[8.559052,47.435732],[8.559492,47.4355],[8.559945,47.435262],[8.560015,47.435228],[8.560098,47.435188],[8.560123,47.435176],[8.560096,47.435153],[8.560081,47.435126],[8.560077,47.435097],[8.560086,47.435069],[8.560107,47.435043],[8.560137,47.435023],[8.560125,47.435009],[8.560074,47.434945],[8.559929,47.434785],[8.559627,47.434451],[8.559582,47.4344],[8.559397,47.434191],[8.55928,47.434058],[8.559156,47.433918],[8.558609,47.433299],[8.558492,47.433167],[8.558388,47.433051],[8.558354,47.433013],[8.558164,47.432795],[8.558061,47.432681],[8.558018,47.432612],[8.558017,47.432543],[8.558029,47.432524],[8.55805,47.432492],[8.558118,47.432453],[8.559041,47.432106],[8.55925,47.431999],[8.559344,47.431947],[8.559405,47.431905],[8.559461,47.431861],[8.559894,47.431471],[8.559971,47.4314],[8.560126,47.431248],[8.560187,47.431181],[8.560238,47.431116],[8.560285,47.431049],[8.560327,47.430981],[8.56036,47.430907],[8.560399,47.430799],[8.560476,47.430586],[8.560532,47.43046],[8.560571,47.430377],[8.560617,47.430297],[8.56064,47.43026],[8.560666,47.430227],[8.560698,47.430197],[8.56055,47.430101],[8.560665,47.43003],[8.560705,47.43001],[8.560778,47.429973],[8.560958,47.429882],[8.561341,47.429697],[8.561579,47.429574],[8.561651,47.42954],[8.561833,47.429452],[8.561994,47.429376],[8.562056,47.429342],[8.562528,47.429116],[8.562838,47.429001],[8.563326,47.428845],[8.563409,47.428821],[8.563484,47.428799],[8.563571,47.428773],[8.563611,47.42876],[8.5636,47.428736],[8.563598,47.428711],[8.563606,47.428687],[8.563624,47.428664],[8.563651,47.428646],[8.563624,47.428625],[8.563566,47.428579],[8.563314,47.428377],[8.563184,47.42826],[8.56291,47.428033],[8.562769,47.427893],[8.56258,47.427707],[8.562351,47.427479],[8.562194,47.427321],[8.562124,47.427251],[8.562067,47.427194],[8.561775,47.426895],[8.561735,47.426854],[8.561717,47.426836],[8.561361,47.426409],[8.56127,47.426301],[8.561198,47.426185],[8.561165,47.426108],[8.561135,47.425988],[8.561128,47.425929],[8.561135,47.425894],[8.561164,47.425855],[8.561244,47.425796],[8.561288,47.425774],[8.561502,47.425668],[8.561556,47.425642],[8.561614,47.425613],[8.561662,47.425586],[8.561668,47.425583],[8.561715,47.425556],[8.561567,47.425476],[8.561432,47.425391],[8.561265,47.425276],[8.561018,47.425104],[8.560947,47.425055],[8.56085,47.424987],[8.560763,47.424932],[8.560674,47.424892],[8.560624,47.424874],[8.56057,47.424859],[8.560502,47.424843],[8.560353,47.424816],[8.560205,47.424788],[8.560149,47.424775],[8.560091,47.424757],[8.56006,47.424748],[8.559948,47.424695],[8.559865,47.424633],[8.559796,47.42457],[8.559463,47.424181],[8.559032,47.423644],[8.558982,47.423586],[8.558937,47.423526],[8.558905,47.423484],[8.558882,47.423455],[8.558812,47.423368],[8.558449,47.422914],[8.55777,47.422062],[8.55773,47.422013],[8.557675,47.421939],[8.557469,47.421683],[8.557184,47.421331],[8.556997,47.421138],[8.556956,47.421095],[8.556891,47.421025],[8.556619,47.420734],[8.556549,47.420659],[8.556501,47.420607],[8.556499,47.420605],[8.55649,47.420595],[8.556463,47.420566],[8.556234,47.420319],[8.556443,47.420155],[8.556537,47.420226],[8.556598,47.420287],[8.556629,47.420323],[8.556635,47.420329],[8.556672,47.420371],[8.556775,47.420488],[8.557184,47.420948],[8.557219,47.420987],[8.557265,47.421037],[8.557316,47.421094],[8.557394,47.42118],[8.557758,47.42163],[8.557964,47.421883],[8.557991,47.421915],[8.558506,47.422571],[8.558959,47.423145],[8.559124,47.42335],[8.559136,47.423365],[8.559158,47.423391],[8.559239,47.423502],[8.559473,47.423778],[8.55963,47.423957],[8.559725,47.424054],[8.559783,47.42411],[8.559881,47.424202],[8.559954,47.424264],[8.559987,47.424339],[8.56004,47.424404],[8.560071,47.424425],[8.560379,47.424644],[8.560403,47.424678],[8.560412,47.424718],[8.560408,47.424756],[8.560386,47.424785],[8.560353,47.424816],[8.560225,47.424863],[8.56019,47.424877],[8.560011,47.424945],[8.559811,47.425016],[8.559596,47.425061],[8.559499,47.42507],[8.558631,47.425296],[8.558487,47.425338],[8.558403,47.42536],[8.557821,47.425512],[8.557681,47.425548],[8.557615,47.425564],[8.557527,47.425584],[8.557455,47.425598],[8.557381,47.425611],[8.557309,47.425621],[8.557146,47.425637],[8.556958,47.425651],[8.556281,47.425695],[8.556067,47.425712],[8.555946,47.425733],[8.555855,47.425748],[8.555666,47.425805],[8.555349,47.425959],[8.55527,47.425999],[8.554732,47.426273],[8.554661,47.42631],[8.554561,47.426218],[8.554283,47.425967],[8.55414,47.425838],[8.554041,47.425746],[8.553996,47.425704],[8.5537,47.425438],[8.553647,47.425383],[8.553486,47.425218],[8.553453,47.425184],[8.552938,47.424693],[8.552884,47.424641],[8.552821,47.424584],[8.552677,47.424435],[8.552432,47.424196],[8.552138,47.423912],[8.551723,47.423507],[8.551665,47.42345],[8.551533,47.423314],[8.551378,47.423156],[8.551366,47.423144],[8.551312,47.423081],[8.551231,47.422986],[8.55104,47.422759],[8.550969,47.422675],[8.550956,47.42266],[8.550947,47.422649],[8.55092,47.422617],[8.550858,47.422544],[8.5508,47.422471],[8.550705,47.422507],[8.550647,47.422544],[8.550626,47.422559],[8.550604,47.422578],[8.550588,47.422592],[8.550536,47.422637],[8.550347,47.422802],[8.550204,47.422939],[8.549782,47.423339],[8.549576,47.423527],[8.549549,47.423553],[8.549185,47.423901],[8.54901,47.424088],[8.548939,47.424166],[8.548936,47.424169],[8.548925,47.424181],[8.548904,47.424204],[8.548866,47.424246],[8.548672,47.424463],[8.548561,47.42459],[8.548402,47.424773],[8.548255,47.424941],[8.548172,47.425039],[8.548037,47.4252],[8.54765,47.425657],[8.54758,47.42574],[8.547547,47.425779],[8.547465,47.425876],[8.547367,47.425988],[8.547329,47.426029],[8.546986,47.426431],[8.546644,47.42684],[8.546986,47.426431],[8.547329,47.426029],[8.547367,47.425988],[8.547465,47.425876],[8.547547,47.425779],[8.54758,47.42574],[8.54765,47.425657],[8.548037,47.4252],[8.548172,47.425039],[8.548255,47.424941],[8.548402,47.424773],[8.548526,47.424631]]}}