{"type":"Feature","properties":{"key":"seebach-loop"},"geometry":{"type":"LineString","coordinates":[[8.551378,47.423156],[8.551366,47.423144],[8.551312,47.423081],[8.551231,47.422986],[8.55104,47.422759],[8.550969,47.422675],[8.550956,47.42266],[8.550947,47.422649],[8.55092,47.422617],[8.550858,47.422544],[8.5508,47.422471],[8.550705,47.422507],[8.550647,47.422544],[8.550626,47.422559],[8.550604,47.422578],[8.550588,47.422592],[8.550536,47.422637],[8.550347,47.422802],[8.550204,47.422939],[8.549782,47.423339],[8.549576,47.423527],[8.549549,47.423553],[8.549185,47.423901],[8.54901,47.424088],[8.548939,47.424166],[8.548936,47.424169],[8.548925,47.424181],[8.548904,47.424204],[8.548866,47.424246],[8.548672,47.424463],[8.548561,47.42459],[8.548402,47.424773],[8.548255,47.424941],[8.548172,47.425039],[8.548037,47.4252],[8.54765,47.425657],[8.54758,47.42574],[8.547547,47.425779],[8.547465,47.425876],[8.547367,47.425988],[8.547329,47.426029],[8.546986,47.426431],[8.546555,47.426947],[8.546555,47.426947],[8.546458,47.427064],[8.546447,47.427077],[8.546367,47.427172],[8.546336,47.427269],[8.546302,47.42731],[8.546218,47.427411],[8.546358,47.427467],[8.546554,47.427556],[8.547117,47.427817],[8.547258,47.427889],[8.54736,47.427944],[8.547479,47.428013],[8.547669,47.42813],[8.54813,47.428477],[8.548339,47.428644],[8.548648,47.428929],[8.549066,47.429375],[8.549341,47.429671],[8.549379,47.429739],[8.549522,47.429899],[8.549546,47.429922],[8.549569,47.42994],[8.549604,47.429967],[8.549707,47.429978],[8.549783,47.430007],[8.549836,47.430043],[8.549874,47.430092],[8.549888,47.43015],[8.549886,47.430285],[8.54989,47.430344],[8.549916,47.430399],[8.549968,47.430454],[8.550029,47.430494],[8.550087,47.430525],[8.550266,47.43059],[8.550317,47.430615],[8.550358,47.430649],[8.550386,47.430691],[8.550403,47.430741],[8.550401,47.430787],[8.550383,47.430826],[8.550332,47.430879],[8.550274,47.430913],[8.550206,47.430934],[8.550122,47.430942],[8.550073,47.43094],[8.550022,47.430931],[8.549963,47.430909],[8.549902,47.430869],[8.549865,47.430821],[8.549846,47.43076],[8.549851,47.430622],[8.549838,47.43055],[8.549798,47.430492],[8.549749,47.430447],[8.549661,47.430392],[8.549546,47.430347],[8.549465,47.430318],[8.549404,47.430284],[8.549364,47.430246],[8.549341,47.430212],[8.54933,47.430171],[8.549332,47.430139],[8.549341,47.430107],[8.549314,47.430041],[8.549281,47.429986],[8.549164,47.429827],[8.549094,47.429766],[8.548854,47.429455],[8.548489,47.428982],[8.548359,47.428828],[8.548225,47.428683],[8.548026,47.428516],[8.54759,47.428191],[8.547415,47.428085],[8.547415,47.428085],[8.547226,47.427977],[8.54705,47.427886],[8.546335,47.427552],[8.546293,47.427533],[8.546162,47.427475],[8.546074,47.427574],[8.546036,47.427615],[8.545918,47.427664],[8.545736,47.427915],[8.545681,47.427991],[8.54557,47.428145],[8.545429,47.428371],[8.54527,47.428627],[8.545265,47.428637],[8.545254,47.428655],[8.545224,47.428707],[8.545189,47.42878],[8.545046,47.428747],[8.544981,47.428743],[8.544839,47.428735],[8.544524,47.428715],[8.544088,47.428682],[8.54374,47.428657],[8.543581,47.428646],[8.543242,47.428622],[8.54318,47.428618],[8.543148,47.428616],[8.542677,47.428582],[8.54258,47.428581],[8.542481,47.428621],[8.542401,47.428699],[8.542128,47.42897],[8.541864,47.429221],[8.541085,47.429894],[8.540983,47.42998],[8.540946,47.430013],[8.54078,47.430154],[8.540688,47.430238],[8.540573,47.430192],[8.540272,47.430063],[8.540057,47.429995],[8.539825,47.429954],[8.539589,47.429936],[8.539238,47.429946],[8.539033,47.429955],[8.538522,47.42998],[8.53835,47.429971],[8.538238,47.429945],[8.538078,47.42988],[8.538005,47.429839],[8.537895,47.429749],[8.537494,47.429388],[8.537204,47.429123],[8.537103,47.429034],[8.536997,47.428938],[8.53693,47.428876],[8.536845,47.42877],[8.536783,47.428798],[8.536762,47.428834],[8.536762,47.428834],[8.536762,47.428834],[8.536783,47.428798],[8.536845,47.42877],[8.536819,47.428684],[8.536816,47.428593],[8.536823,47.428505],[8.53684,47.428408],[8.53687,47.428236],[8.536899,47.428069],[8.536915,47.427959],[8.536933,47.427861],[8.536959,47.427748],[8.536953,47.427669],[8.53693,47.427592],[8.536776,47.427104],[8.53673,47.426961],[8.536575,47.426473],[8.536567,47.426456],[8.536541,47.426391],[8.536467,47.426208],[8.53645,47.426145],[8.536444,47.426117],[8.536437,47.426033],[8.536439,47.426007],[8.53645,47.425956],[8.536467,47.425901],[8.53649,47.425842],[8.536519,47.425789],[8.536566,47.425726],[8.536614,47.425669],[8.536647,47.425628],[8.536758,47.425479],[8.536918,47.425284],[8.537018,47.425179],[8.537209,47.425017],[8.537363,47.424901],[8.537443,47.424842],[8.537542,47.42476],[8.53775,47.424585],[8.537855,47.424499],[8.537859,47.424496],[8.538037,47.424339],[8.538148,47.424219],[8.538233,47.424088],[8.538253,47.424044],[8.53829,47.42396],[8.538324,47.423859],[8.538346,47.423765],[8.538377,47.423525],[8.538425,47.423236],[8.538438,47.423128],[8.538488,47.422797],[8.538514,47.422654],[8.538591,47.422536],[8.538682,47.422428],[8.538752,47.422371],[8.538814,47.422343],[8.538982,47.422291],[8.538945,47.422183],[8.538897,47.422027],[8.53884,47.421858],[8.538796,47.421792],[8.538738,47.421723],[8.538695,47.421685],[8.538654,47.421655],[8.538575,47.421648],[8.538477,47.421623],[8.538427,47.421614],[8.538395,47.421627],[8.538358,47.421633],[8.538321,47.421632],[8.538282,47.421624],[8.53825,47.421608],[8.538229,47.421591],[8.538215,47.42157],[8.53821,47.421547],[8.538212,47.421528],[8.53822,47.421508],[8.538234,47.421491],[8.53826,47.421472],[8.538296,47.421459],[8.538335,47.421453],[8.538381,47.421456],[8.538381,47.421456],[8.538422,47.42147],[8.538447,47.421486],[8.538466,47.421507],[8.538475,47.42153],[8.538606,47.421597],[8.538638,47.421629],[8.538654,47.421655],[8.538695,47.421685],[8.538738,47.421723],[8.538796,47.421792],[8.53884,47.421858],[8.538897,47.422027],[8.538945,47.422183],[8.538982,47.422291],[8.539124,47.422266],[8.539343,47.422252],[8.53949,47.422256],[8.539615,47.422269],[8.539759,47.4223],[8.539847,47.422328],[8.540054,47.422409],[8.540164,47.422452],[8.540275,47.422494],[8.540369,47.422529],[8.54071,47.422662],[8.541294,47.422875],[8.541395,47.422911],[8.541738,47.422999],[8.542039,47.42305],[8.542282,47.423073],[8.542423,47.423085],[8.542532,47.423091],[8.542743,47.423089],[8.54304,47.423048],[8.543206,47.423007],[8.543352,47.422967],[8.54359,47.422842],[8.543673,47.422801],[8.543766,47.422754],[8.54413,47.42257],[8.544301,47.422483],[8.544329,47.422469],[8.54442,47.422421],[8.544638,47.422306],[8.545495,47.421853],[8.545816,47.421665],[8.545951,47.421566],[8.546113,47.421444],[8.546496,47.421154],[8.54676,47.420954],[8.547486,47.420388],[8.547529,47.420348],[8.547551,47.420321],[8.547628,47.420353],[8.547739,47.420448],[8.548196,47.420872],[8.548349,47.421023],[8.54878,47.421429],[8.548846,47.42149],[8.548899,47.421541],[8.54911,47.421434],[8.549241,47.421374],[8.549471,47.42126],[8.549495,47.421247],[8.549513,47.421239],[8.549575,47.42121],[8.549646,47.421177],[8.549663,47.421169],[8.549727,47.42123],[8.549739,47.421241],[8.549756,47.421257],[8.549774,47.421274],[8.549937,47.421431],[8.550027,47.421527],[8.550181,47.421598],[8.550247,47.421663],[8.550302,47.421755],[8.550308,47.421805],[8.550312,47.421854],[8.55037,47.421928],[8.550391,47.421954],[8.550468,47.422052],[8.550663,47.422299],[8.550738,47.422393],[8.55076,47.42242],[8.5508,47.422471],[8.550858,47.422544],[8.55092,47.422617],[8.550947,47.422649],[8.550956,47.42266],[8.550969,47.422675],[8.55104,47.422759],[8.551231,47.422986],[8.551312,47.423081],[8.551366,47.423144],[8.551378,47.423156],[8.551378,47.423156]]}}