{"type":"Feature","properties":{"key":"witiker-runde"},"geometry":{"type":"LineString","coordinates":[[8.589771,47.358602],[8.589833,47.358614],[8.590034,47.358654],[8.590236,47.358693],[8.590342,47.358714],[8.590438,47.358733],[8.590608,47.358764],[8.590679,47.358777],[8.590897,47.358825],[8.591245,47.358902],[8.591803,47.35902],[8.591953,47.359055],[8.592087,47.359094],[8.592182,47.359125],[8.592305,47.359172],[8.592488,47.359257],[8.59268,47.35935],[8.592737,47.359374],[8.592854,47.359423],[8.593015,47.359475],[8.593264,47.35955],[8.593361,47.359578],[8.593367,47.359579],[8.593769,47.359697],[8.594268,47.359811],[8.594332,47.359826],[8.594504,47.359865],[8.594791,47.359923],[8.594829,47.359931],[8.594859,47.359937],[8.595485,47.360065],[8.595737,47.36011],[8.59593,47.360148],[8.596114,47.360189],[8.596305,47.360238],[8.596524,47.360305],[8.596611,47.360332],[8.596788,47.360391],[8.596758,47.360456],[8.596752,47.360495],[8.596752,47.360521],[8.596752,47.360532],[8.596762,47.36059],[8.596778,47.360622],[8.596812,47.360666],[8.597126,47.360947],[8.597219,47.361101],[8.5973,47.361315],[8.597368,47.361495],[8.597397,47.361546],[8.597507,47.361734],[8.597717,47.36208],[8.597766,47.36216],[8.598061,47.362646],[8.598264,47.362974],[8.598323,47.363059],[8.598384,47.363147],[8.598463,47.363248],[8.598568,47.363372],[8.598734,47.363557],[8.598788,47.363634],[8.59882,47.363695],[8.598857,47.363793],[8.598866,47.363866],[8.598868,47.363948],[8.598842,47.364103],[8.598842,47.364103],[8.598842,47.364103],[8.598868,47.363948],[8.598866,47.363866],[8.598857,47.363793],[8.59882,47.363695],[8.598788,47.363634],[8.598734,47.363557],[8.598568,47.363372],[8.598463,47.363248],[8.598384,47.363147],[8.598323,47.363059],[8.598264,47.362974],[8.598061,47.362646],[8.597766,47.36216],[8.597717,47.36208],[8.597507,47.361734],[8.597397,47.361546],[8.597368,47.361495],[8.5973,47.361315],[8.597219,47.361101],[8.597126,47.360947],[8.596812,47.360666],[8.596778,47.360622],[8.596762,47.36059],[8.596752,47.360532],[8.596752,47.360521],[8.596752,47.360495],[8.596758,47.360456],[8.596788,47.360391],[8.596611,47.360332],[8.596524,47.360305],[8.596305,47.360238],[8.596114,47.360189],[8.59593,47.360148],[8.595737,47.36011],[8.595485,47.360065],[8.594859,47.359937],[8.594829,47.359931],[8.594791,47.359923],[8.594504,47.359865],[8.594588,47.359804],[8.594638,47.359752],[8.594661,47.359719],[8.594853,47.359426],[8.594946,47.359291],[8.595021,47.359175],[8.595151,47.35897],[8.595208,47.358864],[8.595316,47.358628],[8.595354,47.358561],[8.595395,47.35851],[8.595472,47.358431],[8.595547,47.358372],[8.59574,47.358268],[8.595952,47.358161],[8.595991,47.35814],[8.596018,47.358124],[8.596106,47.358071],[8.596207,47.358004],[8.596369,47.357886],[8.596446,47.35783],[8.596547,47.357755],[8.596657,47.357685],[8.596733,47.357647],[8.596807,47.357613],[8.596933,47.357566],[8.597338,47.357448],[8.597419,47.357422],[8.597507,47.357392],[8.597591,47.357357],[8.597703,47.357297],[8.597766,47.357261],[8.597824,47.357222],[8.597886,47.35718],[8.597904,47.357166],[8.597988,47.357097],[8.598025,47.357062],[8.598145,47.356941],[8.598164,47.356921],[8.59835,47.356694],[8.598442,47.35659],[8.59853,47.356508],[8.598629,47.356427],[8.59873,47.35635],[8.598817,47.356292],[8.599131,47.356108],[8.599279,47.356026],[8.599638,47.355823],[8.599723,47.355776],[8.600174,47.355535],[8.600482,47.355346],[8.600623,47.355262],[8.600776,47.355162],[8.60099,47.355022],[8.601093,47.354945],[8.601153,47.354889],[8.601237,47.354813],[8.601291,47.354731],[8.601306,47.354664],[8.601323,47.354584],[8.601274,47.354308],[8.601254,47.354197],[8.601254,47.354197],[8.601227,47.354044],[8.601222,47.353998],[8.601246,47.353954],[8.601289,47.353915],[8.601362,47.35388],[8.601486,47.353841],[8.60159,47.353805],[8.601703,47.353754],[8.601812,47.353693],[8.601888,47.353641],[8.601934,47.353602],[8.601943,47.353596],[8.602004,47.353539],[8.602047,47.353489],[8.602084,47.35344],[8.602136,47.353358],[8.602217,47.35318],[8.602299,47.352997],[8.602432,47.352807],[8.602494,47.352713],[8.602516,47.352668],[8.602538,47.352613],[8.60255,47.352557],[8.602546,47.352478],[8.602532,47.352417],[8.602491,47.352322],[8.602435,47.352165],[8.602419,47.352061],[8.602425,47.351987],[8.602458,47.351857],[8.602477,47.351761],[8.602467,47.351686],[8.602436,47.351634],[8.602379,47.351589],[8.60231,47.351563],[8.602192,47.351546],[8.601725,47.351552],[8.601528,47.351541],[8.601387,47.351519],[8.601267,47.351498],[8.601212,47.351477],[8.601162,47.351451],[8.601124,47.351408],[8.601109,47.351372],[8.601115,47.351331],[8.601147,47.351281],[8.601189,47.351245],[8.60135,47.351146],[8.601423,47.351093],[8.601555,47.350969],[8.601623,47.350922],[8.601642,47.350913],[8.601738,47.350871],[8.601939,47.350802],[8.601961,47.35079],[8.601981,47.350773],[8.601989,47.350758],[8.601991,47.350735],[8.601959,47.350672],[8.601942,47.350652],[8.601917,47.350625],[8.601887,47.350599],[8.601855,47.35058],[8.601816,47.350556],[8.601775,47.350539],[8.601726,47.350526],[8.601657,47.350519],[8.601596,47.350525],[8.60152,47.350547],[8.601261,47.350663],[8.601165,47.350699],[8.601045,47.350721],[8.600915,47.35072],[8.600807,47.350716],[8.600384,47.350703],[8.600299,47.350698],[8.600153,47.350676],[8.600079,47.350659],[8.600006,47.350629],[8.599899,47.350575],[8.599708,47.350479],[8.599553,47.350401],[8.599409,47.350342],[8.599323,47.350322],[8.59924,47.350312],[8.598822,47.350289],[8.598517,47.350255],[8.598303,47.350217],[8.598088,47.350179],[8.597988,47.35016],[8.597546,47.35008],[8.597376,47.350045],[8.597261,47.350018],[8.597088,47.349963],[8.596912,47.349893],[8.59681,47.349845],[8.596735,47.349807],[8.596568,47.349709],[8.596482,47.349642],[8.596407,47.349581],[8.596303,47.349477],[8.596181,47.349318],[8.59612,47.349212],[8.596066,47.349103],[8.596035,47.348997],[8.596022,47.348943],[8.596001,47.348793],[8.596004,47.348703],[8.596016,47.348444],[8.596021,47.348316],[8.596026,47.348182],[8.596044,47.347675],[8.596048,47.347597],[8.59605,47.347552],[8.59606,47.34742],[8.59607,47.347273],[8.596075,47.347208],[8.596078,47.347154],[8.596088,47.347119],[8.596101,47.347089],[8.596036,47.347062],[8.595967,47.34703],[8.595724,47.346889],[8.595637,47.346834],[8.5955,47.346734],[8.595325,47.346606],[8.594773,47.346188],[8.594589,47.346053],[8.594372,47.345913],[8.594049,47.345735],[8.593866,47.345645],[8.593676,47.345562],[8.593516,47.345502],[8.593247,47.345412],[8.593129,47.345378],[8.593014,47.345354],[8.592952,47.345341],[8.592853,47.345324],[8.592707,47.345306],[8.592533,47.345292],[8.592375,47.345285],[8.592262,47.345283],[8.592137,47.345285],[8.592021,47.345289],[8.591912,47.3453],[8.591822,47.345312],[8.591733,47.345324],[8.591617,47.345341],[8.591498,47.34536],[8.591359,47.34539],[8.591233,47.345424],[8.591105,47.345474],[8.590935,47.345536],[8.59083,47.345573],[8.590698,47.345627],[8.590625,47.345658],[8.590551,47.345695],[8.590496,47.345722],[8.590454,47.345744],[8.590397,47.345778],[8.590324,47.345823],[8.590269,47.345859],[8.590221,47.345894],[8.590182,47.345925],[8.590094,47.345994],[8.590065,47.346021],[8.59004,47.346044],[8.589947,47.346151],[8.589856,47.346252],[8.589743,47.34638],[8.589634,47.346455],[8.589475,47.346666],[8.58936,47.346815],[8.589243,47.346956],[8.589103,47.34712],[8.58898,47.34726],[8.588881,47.347364],[8.588722,47.347519],[8.58857,47.347654],[8.588477,47.34773],[8.58838,47.347804],[8.588279,47.347876],[8.588172,47.347946],[8.588065,47.348011],[8.587978,47.348062],[8.587895,47.348109],[8.587734,47.348191],[8.587548,47.348275],[8.587012,47.348503],[8.586715,47.348642],[8.58653,47.348737],[8.586365,47.348827],[8.586264,47.348886],[8.586148,47.348956],[8.585993,47.349055],[8.585848,47.349152],[8.58573,47.349237],[8.585618,47.349321],[8.585447,47.349461],[8.585372,47.349526],[8.585142,47.349735],[8.584726,47.350125],[8.584521,47.350315],[8.584383,47.350445],[8.584331,47.350488],[8.584291,47.35052],[8.584213,47.350573],[8.584127,47.350625],[8.584027,47.350676],[8.583926,47.350721],[8.583744,47.350796],[8.583579,47.350862],[8.583451,47.350906],[8.583413,47.350919],[8.583359,47.350934],[8.583309,47.350948],[8.583253,47.350961],[8.583175,47.350977],[8.583097,47.350994],[8.583071,47.350999],[8.583009,47.351032],[8.582925,47.351069],[8.582804,47.351111],[8.582751,47.351124],[8.582686,47.351138],[8.582638,47.351144],[8.582565,47.351151],[8.582499,47.351153],[8.582378,47.351151],[8.582246,47.351142],[8.582186,47.351129],[8.582111,47.351106],[8.582093,47.351099],[8.582027,47.351095],[8.581966,47.351091],[8.581736,47.351076],[8.581674,47.351072],[8.581489,47.351061],[8.581363,47.351052],[8.581109,47.351028],[8.581045,47.351022],[8.580988,47.351017],[8.580853,47.351063],[8.580828,47.351066],[8.58078,47.351064],[8.580704,47.351063],[8.580548,47.351063],[8.580419,47.351066],[8.580288,47.351071],[8.580161,47.351081],[8.58004,47.35109],[8.58004,47.35109],[8.580011,47.351092],[8.579979,47.351089],[8.579872,47.351053],[8.579794,47.351068],[8.579718,47.351084],[8.579656,47.351099],[8.579595,47.351116],[8.579557,47.351128],[8.579487,47.35115],[8.579421,47.351173],[8.579366,47.351194],[8.579309,47.351217],[8.579246,47.351244],[8.579185,47.351273],[8.579132,47.351298],[8.579054,47.351335],[8.578979,47.351372],[8.578841,47.351443],[8.578777,47.351478],[8.578703,47.351519],[8.578607,47.351575],[8.578548,47.351613],[8.57849,47.351651],[8.578425,47.351696],[8.578375,47.351732],[8.578307,47.351784],[8.578252,47.351828],[8.578199,47.351874],[8.578146,47.351922],[8.578093,47.351973],[8.57805,47.352016],[8.578003,47.352066],[8.577961,47.352113],[8.577925,47.352157],[8.577888,47.352203],[8.577838,47.352269],[8.577804,47.352318],[8.57778,47.352357],[8.577742,47.352419],[8.577718,47.35246],[8.57755,47.352775],[8.577525,47.35282],[8.577499,47.352861],[8.577462,47.352912],[8.577422,47.352958],[8.577382,47.352999],[8.577341,47.353036],[8.5773,47.35307],[8.577256,47.353102],[8.577209,47.353134],[8.577159,47.353164],[8.577108,47.353191],[8.577053,47.35322],[8.576966,47.35326],[8.576895,47.353294],[8.576476,47.353491],[8.576442,47.353507],[8.576429,47.353513],[8.576405,47.353525],[8.576267,47.353589],[8.576177,47.353631],[8.576119,47.353659],[8.576099,47.353668],[8.576027,47.353703],[8.575986,47.353725],[8.575947,47.353745],[8.575906,47.353769],[8.575854,47.353799],[8.575809,47.353826],[8.575739,47.35387],[8.575694,47.353901],[8.575649,47.353933],[8.575595,47.353974],[8.575585,47.354001],[8.575553,47.354085],[8.575525,47.354134],[8.575502,47.354157],[8.575401,47.354262],[8.575337,47.35433],[8.575263,47.354411],[8.575211,47.354475],[8.57512,47.35459],[8.575033,47.354712],[8.574961,47.35481],[8.574944,47.35483],[8.574915,47.354848],[8.574874,47.354869],[8.574806,47.354901],[8.574777,47.354914],[8.574743,47.354961],[8.574714,47.354999],[8.574653,47.355077],[8.574608,47.355133],[8.574558,47.355188],[8.574506,47.355244],[8.574467,47.355284],[8.574431,47.35532],[8.574248,47.355499],[8.57411,47.355635],[8.574032,47.355714],[8.573995,47.355755],[8.573966,47.35579],[8.573933,47.35583],[8.573912,47.355858],[8.573886,47.355895],[8.573864,47.355929],[8.573835,47.355974],[8.573816,47.356006],[8.573798,47.356038],[8.573762,47.356108],[8.573695,47.356243],[8.573652,47.356328],[8.573557,47.356519],[8.573528,47.356577],[8.573498,47.356633],[8.573476,47.356674],[8.573449,47.35672],[8.573422,47.356762],[8.57339,47.356806],[8.573359,47.356847],[8.573331,47.356882],[8.573305,47.356912],[8.573285,47.356935],[8.573247,47.356976],[8.5732,47.357024],[8.573145,47.357078],[8.573095,47.357126],[8.573046,47.357169],[8.572993,47.357214],[8.572947,47.357252],[8.572894,47.357294],[8.572842,47.357333],[8.572801,47.357364],[8.572734,47.357411],[8.572682,47.357446],[8.572636,47.357477],[8.572558,47.357528],[8.57223,47.357737],[8.572149,47.357795],[8.572147,47.357813],[8.572142,47.357848],[8.572125,47.357895],[8.572098,47.357923],[8.572081,47.357934],[8.571662,47.358207],[8.571594,47.35825],[8.571542,47.358279],[8.571416,47.358339],[8.57134,47.358379],[8.571231,47.358443],[8.571058,47.358555],[8.570629,47.358836],[8.570185,47.359122],[8.569929,47.359285],[8.569871,47.359322],[8.569826,47.359355],[8.569731,47.359419],[8.569492,47.35958],[8.56907,47.359867],[8.568945,47.359961],[8.568824,47.36005],[8.568779,47.36008],[8.568734,47.360102],[8.568643,47.360145],[8.568498,47.360199],[8.568413,47.360228],[8.568308,47.360256],[8.568231,47.360276],[8.568157,47.360291],[8.568137,47.360294],[8.568082,47.360303],[8.568007,47.360312],[8.567968,47.360316],[8.567933,47.360318],[8.567897,47.36032],[8.567857,47.36032],[8.567674,47.360321],[8.567409,47.360324],[8.567166,47.360326],[8.567061,47.360328],[8.566901,47.360306],[8.566821,47.360295],[8.566821,47.360306],[8.56682,47.360386],[8.566807,47.360426],[8.566794,47.360467],[8.566735,47.360517],[8.566527,47.360664],[8.565488,47.361399],[8.565412,47.361456],[8.56538,47.36148],[8.565308,47.361532],[8.565441,47.361589],[8.565483,47.361608],[8.566119,47.361906],[8.566365,47.362018],[8.567008,47.362314],[8.567095,47.362354],[8.567197,47.362401],[8.567716,47.362644],[8.567856,47.36271],[8.567979,47.362767],[8.568056,47.362711],[8.568123,47.362662],[8.568637,47.36229],[8.568706,47.362239],[8.568814,47.362161],[8.569125,47.361946],[8.569158,47.361924],[8.569328,47.361808],[8.569493,47.361704],[8.569543,47.361679],[8.569636,47.361637],[8.569736,47.361597],[8.569805,47.361572],[8.570877,47.361187],[8.570961,47.361159],[8.571193,47.361078],[8.571229,47.361066],[8.571278,47.361049],[8.571449,47.36099],[8.571562,47.360959],[8.571631,47.360943],[8.571676,47.360934],[8.57188,47.360905],[8.57208,47.360889],[8.573125,47.360829],[8.573248,47.360829],[8.573305,47.360837],[8.57335,47.360847],[8.573413,47.360866],[8.573447,47.360881],[8.573478,47.360899],[8.573506,47.360921],[8.573556,47.360964],[8.573602,47.361013],[8.573699,47.361152],[8.573837,47.36134],[8.57394,47.361494],[8.574071,47.361707],[8.574143,47.361848],[8.574174,47.361914],[8.574208,47.362015],[8.57423,47.362091],[8.574241,47.362175],[8.57424,47.362216],[8.574238,47.362275],[8.574231,47.36236],[8.574214,47.362498],[8.574216,47.362527],[8.574218,47.362578],[8.574226,47.362622],[8.574233,47.362662],[8.574254,47.362729],[8.574291,47.362827],[8.574325,47.362917],[8.574536,47.363428],[8.574607,47.363587],[8.574644,47.363632],[8.574684,47.363668],[8.574743,47.363708],[8.574807,47.363732],[8.57486,47.363746],[8.574894,47.363754],[8.57493,47.363759],[8.574964,47.363761],[8.575003,47.363762],[8.575067,47.363759],[8.575116,47.363752],[8.575151,47.363744],[8.575183,47.363734],[8.57522,47.363717],[8.575261,47.363698],[8.575293,47.363678],[8.575328,47.363652],[8.575358,47.363617],[8.575391,47.363553],[8.575441,47.363428],[8.575701,47.362772],[8.57573,47.362718],[8.576247,47.36176],[8.576323,47.361623],[8.576371,47.36156],[8.576456,47.36149],[8.576504,47.361455],[8.576593,47.361399],[8.576641,47.361369],[8.57703,47.36118],[8.577569,47.36094],[8.577835,47.360823],[8.578253,47.360645],[8.578876,47.360398],[8.579128,47.360301],[8.579282,47.360241],[8.579562,47.360132],[8.579791,47.36004],[8.579923,47.359988],[8.580178,47.359893],[8.580564,47.359739],[8.580974,47.359568],[8.581372,47.359385],[8.581673,47.359241],[8.581781,47.359192],[8.582261,47.358972],[8.582671,47.358778],[8.582942,47.358651],[8.583081,47.35859],[8.583116,47.358575],[8.583263,47.358521],[8.583358,47.358491],[8.583454,47.358463],[8.583597,47.358426],[8.583702,47.358404],[8.58386,47.358371],[8.583908,47.35836],[8.583991,47.358348],[8.584112,47.358338],[8.584388,47.358323],[8.584487,47.358319],[8.585031,47.358308],[8.585094,47.358307],[8.58528,47.358302],[8.585468,47.358297],[8.585534,47.358295],[8.585982,47.358283],[8.586363,47.358274],[8.586752,47.358265],[8.587081,47.358256],[8.587467,47.358247],[8.587516,47.358246],[8.587558,47.358245],[8.587635,47.358243],[8.5878,47.358247],[8.587965,47.358255],[8.588151,47.35828],[8.588325,47.358312],[8.588682,47.358389],[8.589335,47.358517],[8.589702,47.358589],[8.589771,47.358602],[8.589771,47.358602]]}}